NORAD_CAT_ID,OBJECT_NAME,OBJECT_TYPE,EPOCH,MEAN_MOTION,ECCENTRICITY,INCLINATION,RA_OF_ASC_NODE,ARG_OF_PERICENTER,MEAN_ANOMALY,BSTAR,MEAN_MOTION_DOT,MEAN_MOTION_DDOT,TLE_LINE0,TLE_LINE1,TLE_LINE2,SEMIMAJOR_AXIS,PERIOD,APOGEE,PERIGEE,DECAYED
56489.0,STARLINK-5923,PAYLOAD,2024-08-02 22:51:06,14.98318956,0.0002579,70.0002,136.2924,267.0262,93.0602,4.8892e-05,4.9e-06,0.0,0 STARLINK-5923,1 56489U 23064AT  24215.95215491  .00000490  00000-0  48892-4 0  9995,2 56489  70.0002 136.2924 0002579 267.0262  93.0602 14.98318956 68792,6950.227,96.108,573.885,570.3,0.0
56489.0,STARLINK-5923,PAYLOAD,2024-08-03 11:40:10,14.98328498,0.0002653,70.0003,134.9466,268.5114,91.5741,5.8342e-05,6.03e-06,0.0,0 STARLINK-5923,1 56489U 23064AT  24216.48623282  .00000603  00000-0  58342-4 0  9992,2 56489  70.0003 134.9466 0002653 268.5114  91.5741 14.98328498 69233,6950.198,96.107,573.906,570.219,0.0
56489.0,STARLINK-5923,PAYLOAD,2024-08-03 21:16:58,14.98337412,0.0002663,70.0018,133.9372,264.7365,95.349,3.8435e-05,3.66e-06,0.0,0 STARLINK-5923,1 56489U 23064AT  24216.88678471  .00000366  00000-0  38435-4 0  9993,2 56489  70.0018 133.9372 0002663 264.7365  95.3490 14.98337412 69296,6950.17,96.107,573.886,570.184,0.0
56489.0,STARLINK-5923,PAYLOAD,2024-08-03 22:53:06,14.98334001,0.0002858,70.0015,133.7674,269.6427,90.4405,8.3849e-06,7e-08,0.0,0 STARLINK-5923,1 56489U 23064AT  24216.95354649  .00000007  00000-0  83849-5 0  9991,2 56489  70.0015 133.7674 0002858 269.6427  90.4405 14.98334001 68949,6950.181,96.107,574.032,570.059,0.0
56489.0,STARLINK-5923,PAYLOAD,2024-08-04 11:42:10,14.98339783,0.0002721,70.0018,132.4216,268.0386,92.0462,0.0001025,1.131e-05,0.0,0 STARLINK-5923,1 56489U 23064AT  24217.48762274  .00001131  00000-0  10250-3 0  9990,2 56489  70.0018 132.4216 0002721 268.0386  92.0462 14.98339783 69029,6950.163,96.106,573.919,570.136,0.0
56489.0,STARLINK-5923,PAYLOAD,2024-08-04 21:18:59,14.98338086,0.0002741,70.0019,131.4118,269.3964,90.6881,0.00044702,5.246e-05,0.0,0 STARLINK-5923,1 56489U 23064AT  24217.88818537  .00005246  00000-0  44702-3 0  9998,2 56489  70.0019 131.4118 0002741 269.3964  90.6881 14.98338086 69448,6950.168,96.106,573.938,570.128,0.0
56489.0,STARLINK-5923,PAYLOAD,2024-08-04 22:55:07,14.9834024,0.0002684,70.0022,131.2436,269.0126,91.0726,0.00042493,4.982e-05,0.0,0 STARLINK-5923,1 56489U 23064AT  24217.95494469  .00004982  00000-0  42493-3 0  9991,2 56489  70.0022 131.2436 0002684 269.0126  91.0726 14.98340240 69095,6950.161,96.106,573.892,570.161,0.0
56489.0,STARLINK-5923,PAYLOAD,2024-08-05 11:44:11,14.98333192,0.0002604,70.0013,129.8964,276.5688,83.5174,9.511e-05,1.042e-05,0.0,0 STARLINK-5923,1 56489U 23064AT  24218.48902578  .00001042  00000-0  95110-4 0  9994,2 56489  70.0013 129.8964 0002604 276.5688  83.5174 14.98333192 69532,6950.183,96.107,573.858,570.238,0.0
56489.0,STARLINK-5923,PAYLOAD,2024-08-05 21:21:01,14.98309345,0.0002887,70.0023,128.8879,272.4326,87.6503,-0.00050074,-6.059e-05,0.0,0 STARLINK-5923,1 56489U 23064AT  24218.88959591 -.00006059  00000-0 -50074-3 0  9999,2 56489  70.0023 128.8879 0002887 272.4326  87.6503 14.98309345 69594,6950.257,96.108,574.128,570.115,0.0
56489.0,STARLINK-5923,PAYLOAD,2024-08-05 22:57:09,14.98309943,0.0002836,70.0021,128.7193,272.5721,87.5113,-0.00046079,-5.584e-05,0.0,0 STARLINK-5923,1 56489U 23064AT  24218.95635648 -.00005584  00000-0 -46079-3 0  9993,2 56489  70.0021 128.7193 0002836 272.5721  87.5113 14.98309943 69246,6950.255,96.108,574.091,570.149,0.0
56489.0,STARLINK-5923,PAYLOAD,2024-08-06 11:46:13,14.98321073,0.0002721,70.0021,127.3718,270.4679,89.6168,-2.0662e-05,-3.39e-06,0.0,0 STARLINK-5923,1 56489U 23064AT  24219.49043747 -.00000339  00000-0 -20662-4 0  9990,2 56489  70.0021 127.3718 0002721 270.4679  89.6168 14.98321073 69685,6950.22,96.108,573.977,570.194,0.0
56489.0,STARLINK-5923,PAYLOAD,2024-08-06 19:46:53,14.98335709,0.0003021,70.0013,126.5302,271.3299,88.7514,0.00067095,7.923e-05,0.0,0 STARLINK-5923,1 56489U 23064AT  24219.82423509  .00007923  00000-0  67095-3 0  9999,2 56489  70.0013 126.5302 0003021 271.3299  88.7514 14.98335709 69730,6950.175,96.107,574.14,569.941,0.0
56489.0,STARLINK-5923,PAYLOAD,2024-08-06 21:23:02,14.98339043,0.000309,70.0015,126.3617,271.6741,88.4064,0.0016576,0.00019746,0.0,0 STARLINK-5923,1 56489U 23064AT  24219.89099815  .00019746  00000-0  16576-2 0  9998,2 56489  70.0015 126.3617 0003090 271.6741  88.4064 14.98339043 69383,6950.165,96.106,574.178,569.882,0.0
56489.0,STARLINK-5923,PAYLOAD,2024-08-07 03:47:34,14.98355644,0.0003109,70.0015,125.6879,271.3435,88.7368,0.001918,0.00022882,0.0,0 STARLINK-5923,1 56489U 23064AT  24220.15803408  .00022882  00000-0  19180-2 0  9999,2 56489  70.0015 125.6879 0003109 271.3435  88.7368 14.98355644 69782,6950.114,96.105,574.139,569.818,0.0
56489.0,STARLINK-5923,PAYLOAD,2024-08-07 19:48:54,14.98345122,0.0002585,70.0031,124.008,247.5277,112.5609,0.00040311,4.722e-05,0.0,0 STARLINK-5923,1 56489U 23064AT  24220.82562959  .00004722  00000-0  40311-3 0  9990,2 56489  70.0031 124.0080 0002585 247.5277 112.5609 14.98345122 69888,6950.146,96.106,573.808,570.215,0.0
56489.0,STARLINK-5923,PAYLOAD,2024-08-08 03:49:34,14.983463,0.0002707,70.0023,123.1632,272.4482,87.6367,0.00033516,3.91e-05,0.0,0 STARLINK-5923,1 56489U 23064AT  24221.15942843  .00003910  00000-0  33516-3 0  9998,2 56489  70.0023 123.1632 0002707 272.4482  87.6367 14.98346300 69571,6950.142,96.106,573.889,570.126,0.0
56489.0,STARLINK-5923,PAYLOAD,2024-08-08 21:27:03,14.98337473,0.0002655,70.0026,121.3142,249.7342,110.3532,0.00073404,8.678e-05,0.0,0 STARLINK-5923,1 56489U 23064AT  24221.89378883  .00008678  00000-0  73404-3 0  9992,2 56489  70.0026 121.3142 0002655 249.7342 110.3532 14.98337473 70047,6950.17,96.107,573.88,570.19,0.0
56489.0,STARLINK-5923,PAYLOAD,2024-08-09 03:51:34,14.9834979,0.0002523,70.0024,120.6416,243.9758,116.1141,0.0002573,2.98e-05,0.0,0 STARLINK-5923,1 56489U 23064AT  24222.16081835  .00002980  00000-0  25730-3 0  9990,2 56489  70.0024 120.6416 0002523 243.9758 116.1141 14.98349790 70081,6950.132,96.106,573.75,570.243,0.0
56489.0,STARLINK-5923,PAYLOAD,2024-08-09 10:16:07,14.98334008,0.0002424,70.0025,119.968,255.2174,104.8716,-5.5997e-05,-7.61e-06,0.0,0 STARLINK-5923,1 56489U 23064AT  24222.42786525 -.00000761  00000-0 -55997-4 0  9993,2 56489  70.0025 119.9680 0002424 255.2174 104.8716 14.98334008 70127,6950.18,96.107,573.73,570.361,0.0
56489.0,STARLINK-5923,PAYLOAD,2024-08-09 21:29:03,14.98333318,0.0002616,70.0024,118.7902,256.4858,103.601,4.8726e-05,4.89e-06,0.0,0 STARLINK-5923,1 56489U 23064AT  24222.89518485  .00000489  00000-0  48726-4 0  9999,2 56489  70.0024 118.7902 0002616 256.4858 103.6010 14.98333318 69838,6950.183,96.107,573.866,570.229,0.0
56489.0,STARLINK-5923,PAYLOAD,2024-08-10 03:53:35,14.98337228,0.0002581,70.0022,118.1159,254.4554,105.632,9.8962e-05,1.088e-05,0.0,0 STARLINK-5923,1 56489U 23064AT  24223.16222143  .00001088  00000-0  98962-4 0  9996,2 56489  70.0022 118.1159 0002581 254.4554 105.6320 14.98337228 69870,6950.171,96.107,573.829,570.242,0.0
56489.0,STARLINK-5923,PAYLOAD,2024-08-10 21:31:04,14.98337007,0.0002829,70.0019,116.2644,246.2305,113.8557,4.3427e-05,4.25e-06,0.0,0 STARLINK-5923,1 56489U 23064AT  24223.89657952  .00000425  00000-0  43427-4 0  9996,2 56489  70.0019 116.2644 0002829 246.2305 113.8557 14.98337007 70344,6950.171,96.107,574.002,570.07,0.0
56489.0,STARLINK-5923,PAYLOAD,2024-08-11 23:09:13,14.98332301,0.0002947,70.0008,113.5673,271.3902,88.692,0.00014811,1.675e-05,0.0,0 STARLINK-5923,1 56489U 23064AT  24224.96474253  .00001675  00000-0  14811-3 0  9998,2 56489  70.0008 113.5673 0002947 271.3902  88.6920 14.98332301 70140,6950.186,96.107,574.099,570.003,0.0
56489.0,STARLINK-5923,PAYLOAD,2024-08-12 02:21:29,14.98343049,0.0003075,70.001,113.2324,264.5794,95.5014,0.00033356,3.891e-05,0.0,0 STARLINK-5923,1 56489U 23064AT  24225.09825623  .00003891  00000-0  33356-3 0  9991,2 56489  70.0010 113.2324 0003075 264.5794  95.5014 14.98343049 70523,6950.153,96.106,574.155,569.88,0.0
56489.0,STARLINK-5923,PAYLOAD,2024-08-12 15:10:33,14.98344005,0.0002641,70.0008,111.8848,268.9858,91.0998,0.00036694,4.289e-05,0.0,0 STARLINK-5923,1 56489U 23064AT  24225.63233593  .00004289  00000-0  36694-3 0  9990,2 56489  70.0008 111.8848 0002641 268.9858  91.0998 14.98344005 70246,6950.15,96.106,573.85,570.179,0.0
56489.0,STARLINK-5923,PAYLOAD,2024-08-12 23:11:13,14.98351434,0.0002672,70.0004,111.0425,269.4664,90.6189,0.00049708,5.846e-05,0.0,0 STARLINK-5923,1 56489U 23064AT  24225.96613146  .00005846  00000-0  49708-3 0  9992,2 56489  70.0004 111.0425 0002672 269.4664  90.6189 14.98351434 70296,6950.127,96.106,573.849,570.135,0.0
56489.0,STARLINK-5923,PAYLOAD,2024-08-13 02:23:29,14.98354284,0.0002806,70.0012,110.7066,269.6459,90.4378,0.00061325,7.236e-05,0.0,0 STARLINK-5923,1 56489U 23064AT  24226.09964976  .00007236  00000-0  61325-3 0  9991,2 56489  70.0012 110.7066 0002806 269.6459  90.4378 14.98354284 70671,6950.118,96.105,573.933,570.033,0.0
56489.0,STARLINK-5923,PAYLOAD,2024-08-13 15:12:36,14.98298035,0.0003169,70.0014,109.3587,269.7983,90.2813,-0.00081054,-9.743e-05,0.0,0 STARLINK-5923,1 56489U 23064AT  24226.63375283 -.00009743  00000-0 -81054-3 0  9996,2 56489  70.0014 109.3587 0003169 269.7983  90.2813 14.98298035 70393,6950.292,96.109,574.359,569.954,0.0
56489.0,STARLINK-5923,PAYLOAD,2024-08-13 23:13:17,14.98290693,0.0003168,70.0012,108.5168,282.2551,77.8253,-0.00079841,-9.597e-05,0.0,0 STARLINK-5923,1 56489U 23064AT  24226.96756351 -.00009597  00000-0 -79841-3 0  9999,2 56489  70.0012 108.5168 0003168 282.2551  77.8253 14.98290693 70444,6950.314,96.11,574.381,569.978,0.0
56489.0,STARLINK-5923,PAYLOAD,2024-08-14 08:50:05,14.9831668,0.0003254,70.0003,107.5094,276.0617,84.0171,5.0367e-05,5.08e-06,0.0,0 STARLINK-5923,1 56489U 23064AT  24227.36812059  .00000508  00000-0  50367-4 0  9996,2 56489  70.0003 107.5094 0003254 276.0617  84.0171 14.98316680 70861,6950.234,96.108,574.361,569.837,0.0
